[{"OBJECT_NAME":"STARLINK-2443","OBJECT_ID":"2021-027R","EPOCH":"2026-03-09T12:57:59.498208","MEAN_MOTION":15.06613469,"ECCENTRICITY":0.00012759,"INCLINATION":53.056,"RA_OF_ASC_NODE":152.2838,"ARG_OF_PERICENTER":139.4274,"MEAN_ANOMALY":220.681,"EPHEMERIS_TYPE":0,"CLASSIFICATION_TYPE":"U","NORAD_CAT_ID":48107,"ELEMENT_SET_NO":999,"REV_AT_EPOCH":27267,"BSTAR":0.0018192984,"MEAN_MOTION_DOT":0.00027078,"MEAN_MOTION_DDOT":0},{"OBJECT_NAME":"STEP 2","OBJECT_ID":"1994-029A","EPOCH":"2026-03-09T19:35:47.124096","MEAN_MOTION":14.90069818,"ECCENTRICITY":0.0082455,"INCLINATION":81.9356,"RA_OF_ASC_NODE":275.268,"ARG_OF_PERICENTER":225.1907,"MEAN_ANOMALY":134.2589,"EPHEMERIS_TYPE":0,"CLASSIFICATION_TYPE":"U","NORAD_CAT_ID":23105,"ELEMENT_SET_NO":999,"REV_AT_EPOCH":70508,"BSTAR":0.00037800709,"MEAN_MOTION_DOT":3.917e-5,"MEAN_MOTION_DDOT":0}]
